{
"type": "FeatureCollection",
"name": "indeland",
"crs": { "type": "name", "properties": { "name": "urn:ogc:def:crs:OGC:1.3:CRS84" } },
"features": [
{ "type": "Feature", "properties": { "AGS": "5888888", "GEN": "Indeland" }, "geometry": { "type": "Polygon", "coordinates": [ [ [ 6.389081389833244, 50.83678059587907 ], [ 6.388969793402627, 50.83385687846841 ], [ 6.385915071251025, 50.833802639140082 ], [ 6.386001906764611, 50.832499032194953 ], [ 6.3902536801772, 50.832532612278676 ], [ 6.387593123521865, 50.830113311135577 ], [ 6.386128255376908, 50.828817755155377 ], [ 6.389416195530897, 50.827195094941231 ], [ 6.403089098670921, 50.819929001953618 ], [ 6.409686527049666, 50.817701777486462 ], [ 6.408387805426974, 50.815808600588134 ], [ 6.413007879682819, 50.813967708270795 ], [ 6.410361291481479, 50.811642831420734 ], [ 6.410874293930448, 50.809553068335852 ], [ 6.419067521870353, 50.807566105153207 ], [ 6.417233622240323, 50.805737164125546 ], [ 6.416150068273115, 50.805322602503615 ], [ 6.416462637661708, 50.804231752524458 ], [ 6.414663298502197, 50.802332480265861 ], [ 6.416249539026366, 50.801757575330534 ], [ 6.41240133789764, 50.796999047526157 ], [ 6.409126159641919, 50.793665345254546 ], [ 6.406534020741256, 50.791828506336927 ], [ 6.404576304063469, 50.790910368779912 ], [ 6.403582838477717, 50.789017309200176 ], [ 6.402080435078603, 50.78615415417314 ], [ 6.403207599475022, 50.784653038582846 ], [ 6.40076582410546, 50.78364749878623 ], [ 6.401284252144918, 50.782602475790092 ], [ 6.402212127156297, 50.78126554079045 ], [ 6.402104404253103, 50.778774542732755 ], [ 6.402401460930535, 50.777983021791783 ], [ 6.402554715172998, 50.777571498592081 ], [ 6.403900932864217, 50.773502792317693 ], [ 6.40428684679245, 50.77287816470308 ], [ 6.398325462797874, 50.770485857780862 ], [ 6.396507862319278, 50.769495017457984 ], [ 6.391112239633864, 50.766751196137498 ], [ 6.386032737810087, 50.767147631772232 ], [ 6.383028622843625, 50.766160478934424 ], [ 6.378803253586764, 50.763435102467746 ], [ 6.376919953713889, 50.762795824507585 ], [ 6.37556844963463, 50.763076067111676 ], [ 6.375035729186257, 50.763186525255691 ], [ 6.373694329764545, 50.763022912023189 ], [ 6.370684310914464, 50.759855475436858 ], [ 6.372981872394813, 50.758554728559666 ], [ 6.372982259214838, 50.757848687215585 ], [ 6.372588184384381, 50.757205168541489 ], [ 6.369975669253257, 50.756654220865457 ], [ 6.368726767080213, 50.756495220596783 ], [ 6.367295041863941, 50.7566757213703 ], [ 6.365584802052788, 50.758689863915912 ], [ 6.363687659212097, 50.758890462784684 ], [ 6.362264562400039, 50.760184415793859 ], [ 6.360994675861835, 50.760768513295353 ], [ 6.359852717852164, 50.760927982265642 ], [ 6.357402263915052, 50.760582835871993 ], [ 6.355546304637428, 50.762175970332542 ], [ 6.35893321259803, 50.76873498317704 ], [ 6.355673493656714, 50.76784584877597 ], [ 6.352400786429157, 50.769130729441777 ], [ 6.353557117863831, 50.771346702884415 ], [ 6.353583961046684, 50.773579462272892 ], [ 6.351732434792014, 50.775115491053057 ], [ 6.352676325883688, 50.775664318509122 ], [ 6.352094406806258, 50.777131350289828 ], [ 6.351602420534956, 50.778601601650408 ], [ 6.35255088811588, 50.77866929602331 ], [ 6.354352012080523, 50.780159278743511 ], [ 6.355904939113219, 50.784583953793366 ], [ 6.353240628080294, 50.78912073780883 ], [ 6.352544038422292, 50.788960629101098 ], [ 6.352239958874486, 50.787426735562128 ], [ 6.35046989677755, 50.785912444180184 ], [ 6.34779094661205, 50.784708006385145 ], [ 6.346792099128058, 50.784466580543942 ], [ 6.344040013745236, 50.784453736493745 ], [ 6.343843521348596, 50.783701328802337 ], [ 6.343840240289683, 50.781349091943127 ], [ 6.342690637531283, 50.779577549692604 ], [ 6.339927459857973, 50.77895550078334 ], [ 6.338239164298617, 50.779667417857027 ], [ 6.336502557087206, 50.779404728465565 ], [ 6.335002032128641, 50.778521009181155 ], [ 6.334467965193574, 50.777587928116603 ], [ 6.33461621342302, 50.776275306995736 ], [ 6.332334417787322, 50.775222134939682 ], [ 6.326934891671928, 50.776316471846648 ], [ 6.325680410137148, 50.776199177427699 ], [ 6.322339947909944, 50.775727284920954 ], [ 6.322352709123734, 50.77526812787135 ], [ 6.322415560464445, 50.774567450488533 ], [ 6.322566234831579, 50.772887621146083 ], [ 6.322658084466583, 50.771863553899955 ], [ 6.314201750145298, 50.771864687311584 ], [ 6.311219998484011, 50.776416194381646 ], [ 6.310112371114831, 50.778142526669015 ], [ 6.308806181634123, 50.778915387255502 ], [ 6.308634661952499, 50.779873486937007 ], [ 6.308643882020616, 50.780864132976447 ], [ 6.308775835573376, 50.781138467838971 ], [ 6.309119994909145, 50.781292791511426 ], [ 6.309553380404122, 50.781450342323666 ], [ 6.310216426745529, 50.782594587876524 ], [ 6.310690552705865, 50.782840651312249 ], [ 6.311252690663138, 50.78295890715254 ], [ 6.31175174423212, 50.783133010024187 ], [ 6.312266664355052, 50.783384063155125 ], [ 6.312600925954015, 50.783682280888321 ], [ 6.312797730013384, 50.78400414349926 ], [ 6.312714056325719, 50.784430323947895 ], [ 6.312057718286954, 50.785207783813021 ], [ 6.311621805386467, 50.785535390565407 ], [ 6.31098437882993, 50.785598187520051 ], [ 6.310156438014602, 50.785768546645784 ], [ 6.309685994841256, 50.785980443350439 ], [ 6.308678360855078, 50.786144293558941 ], [ 6.307813043409833, 50.78622744334227 ], [ 6.306900375610058, 50.786337486977452 ], [ 6.305757537062952, 50.786496419441512 ], [ 6.305099532768581, 50.786787350281308 ], [ 6.303999717796064, 50.787456221385064 ], [ 6.302293203548909, 50.786522007452476 ], [ 6.301735493786725, 50.786998363767346 ], [ 6.299130634526605, 50.785854074691599 ], [ 6.295724350695951, 50.784948235712683 ], [ 6.295537045842976, 50.784031197876331 ], [ 6.294759067956854, 50.783200868987741 ], [ 6.29391040429441, 50.783782898576192 ], [ 6.293147549594758, 50.784359026126921 ], [ 6.292141721495562, 50.785106571513424 ], [ 6.291167766739819, 50.784557493462692 ], [ 6.289049080407803, 50.783462115721122 ], [ 6.287990180857854, 50.782909920915351 ], [ 6.285628560535587, 50.78450033749705 ], [ 6.277684795906043, 50.783210734921688 ], [ 6.275830207650992, 50.783909187057148 ], [ 6.272027956627421, 50.781319107830463 ], [ 6.263378629519638, 50.781075228673068 ], [ 6.259624126491222, 50.779063257661043 ], [ 6.256218067961377, 50.781498101416169 ], [ 6.255098263433313, 50.78115064854871 ], [ 6.250923875027738, 50.784990200726547 ], [ 6.248118360154744, 50.790024469525044 ], [ 6.237258817342108, 50.785173197959828 ], [ 6.236927728623612, 50.785683752553901 ], [ 6.237462528415302, 50.786468540452809 ], [ 6.238528104910335, 50.78699339815617 ], [ 6.239607122862755, 50.788521075649172 ], [ 6.238586680495439, 50.78992666865156 ], [ 6.23762611150774, 50.789449755282263 ], [ 6.235839492678507, 50.789240942367478 ], [ 6.233939477426008, 50.789929312816355 ], [ 6.231245887608114, 50.792436971057228 ], [ 6.232858034078393, 50.793319043414705 ], [ 6.230656980619519, 50.794815578016404 ], [ 6.229884404534198, 50.795467831448519 ], [ 6.232364058652889, 50.797331727371585 ], [ 6.231220646308143, 50.798256440331556 ], [ 6.231090526519118, 50.799402369159225 ], [ 6.229223126685872, 50.800726192106701 ], [ 6.219269813103123, 50.796352779653162 ], [ 6.213898880757782, 50.794532689000718 ], [ 6.207762257123031, 50.793917253165588 ], [ 6.210773109934901, 50.80244676877205 ], [ 6.21220036901848, 50.802238206466114 ], [ 6.212524709526241, 50.803337183017895 ], [ 6.214685585461207, 50.80305114990373 ], [ 6.215234483330283, 50.804504485866431 ], [ 6.210687227524161, 50.805238910517531 ], [ 6.208650616128862, 50.80556777759265 ], [ 6.207025495255796, 50.801289558421217 ], [ 6.197824063514968, 50.802823057779847 ], [ 6.198433282731734, 50.804233666998179 ], [ 6.195094271599295, 50.805272373359479 ], [ 6.1938768362576, 50.805055903015045 ], [ 6.192856241017465, 50.805017981506239 ], [ 6.191710528434761, 50.804795140042785 ], [ 6.190982548067481, 50.804515713584877 ], [ 6.190548846224246, 50.803976833552227 ], [ 6.189806075264134, 50.808464740702533 ], [ 6.195554418964477, 50.809832007613728 ], [ 6.197872120918181, 50.810612047238251 ], [ 6.20920756073084, 50.816034331318399 ], [ 6.208583355038504, 50.816786335781643 ], [ 6.208082969646549, 50.818200862373146 ], [ 6.207529613407671, 50.818955485497774 ], [ 6.206912800947957, 50.819626640930331 ], [ 6.206252515303174, 50.820151977360794 ], [ 6.205547102987671, 50.820549458457528 ], [ 6.204649876293617, 50.821020946125088 ], [ 6.204252999884013, 50.821312681924411 ], [ 6.204028847877152, 50.821736997103336 ], [ 6.204266996448478, 50.822547969908818 ], [ 6.20472150911701, 50.823943783278182 ], [ 6.205141296267385, 50.824328861916705 ], [ 6.205891572598638, 50.824987552170519 ], [ 6.207396424246432, 50.826413229520057 ], [ 6.203386105215797, 50.829004633427331 ], [ 6.200709107049229, 50.829175806338675 ], [ 6.201417993156332, 50.832284507445159 ], [ 6.198593213263259, 50.83266647199676 ], [ 6.205307614477055, 50.840098588034742 ], [ 6.206001265958542, 50.841989937080058 ], [ 6.205896187671244, 50.843590342024207 ], [ 6.205751772620158, 50.845000020120487 ], [ 6.208464312465381, 50.845533016968474 ], [ 6.208170736159375, 50.848559494348493 ], [ 6.218773908256693, 50.853453453384368 ], [ 6.219704114073673, 50.853988546262258 ], [ 6.218048434401243, 50.854785927784022 ], [ 6.224283324052057, 50.857265909515334 ], [ 6.225858921316482, 50.859793068378231 ], [ 6.227162535237626, 50.862346991564507 ], [ 6.230164980605774, 50.863457908490616 ], [ 6.223381126312474, 50.870787843097347 ], [ 6.22938887614079, 50.873920142852839 ], [ 6.228321810158289, 50.874836227779831 ], [ 6.227229029803564, 50.874327348431038 ], [ 6.226227785726864, 50.87514669877104 ], [ 6.223050451741616, 50.877940794174599 ], [ 6.220851950971517, 50.881227490346852 ], [ 6.219245096010865, 50.884430431980164 ], [ 6.218959336116056, 50.88600964664105 ], [ 6.214883265299316, 50.886021518026098 ], [ 6.21561893567715, 50.88793233981103 ], [ 6.21069469007548, 50.890184003772596 ], [ 6.209800518025372, 50.890917061560074 ], [ 6.208198717840911, 50.890208946090944 ], [ 6.20373002707105, 50.894153566907868 ], [ 6.199716572061264, 50.897941783484839 ], [ 6.202491873294362, 50.900143014147716 ], [ 6.199959393035999, 50.902243173588964 ], [ 6.205916328032123, 50.904813521485096 ], [ 6.209958710076039, 50.907595539844806 ], [ 6.216433009021531, 50.910782727351155 ], [ 6.220529948255561, 50.914681491003599 ], [ 6.222331383743737, 50.914289984128011 ], [ 6.224593307925848, 50.916445892284976 ], [ 6.222744900571366, 50.916680290180302 ], [ 6.223217974287533, 50.917441706161839 ], [ 6.226712703986124, 50.919802287117243 ], [ 6.22861130330135, 50.920816400651844 ], [ 6.226189030653984, 50.922255687487798 ], [ 6.226700120324812, 50.922441406066497 ], [ 6.228252891051476, 50.923235525265177 ], [ 6.225862920202356, 50.924607026022692 ], [ 6.227853801255801, 50.925326149120963 ], [ 6.226522355261514, 50.926011785566345 ], [ 6.225967464244138, 50.926301378471514 ], [ 6.226534111896054, 50.926703755734671 ], [ 6.227067541322151, 50.927057215203568 ], [ 6.225104565359577, 50.928296560911562 ], [ 6.222161909875831, 50.929929052320915 ], [ 6.226299471390293, 50.930901925163916 ], [ 6.224180470330158, 50.932229967458646 ], [ 6.226469804638521, 50.933139837901933 ], [ 6.229617202978043, 50.934989444458026 ], [ 6.229062478835682, 50.935754114852685 ], [ 6.228534438494857, 50.936659704281972 ], [ 6.225878072084646, 50.935080741443791 ], [ 6.224507720513336, 50.935680678001759 ], [ 6.227626920518658, 50.937511527928926 ], [ 6.224930107731625, 50.939293433821227 ], [ 6.225082325877992, 50.939649781995087 ], [ 6.224862632955462, 50.940025857421553 ], [ 6.223362506483389, 50.941674325097509 ], [ 6.222942753422211, 50.941926121403043 ], [ 6.222293541402498, 50.942085960568605 ], [ 6.21970953082162, 50.942511147143001 ], [ 6.217665372837607, 50.943174909089329 ], [ 6.215760962713451, 50.944024042245879 ], [ 6.211389158457555, 50.944222987069892 ], [ 6.202589932361843, 50.94390744005679 ], [ 6.19844268817353, 50.948017146931498 ], [ 6.194493987933114, 50.950133221537342 ], [ 6.197685822401031, 50.95248656389218 ], [ 6.202469729770402, 50.952906820866495 ], [ 6.201201042598097, 50.954726021008554 ], [ 6.200801110235438, 50.956189719986099 ], [ 6.198330060182789, 50.959222235865397 ], [ 6.196081129169038, 50.959043639923308 ], [ 6.195791262865566, 50.959319070512102 ], [ 6.193817387212311, 50.961058342687117 ], [ 6.193547473276366, 50.961525281400242 ], [ 6.193627269364297, 50.96188593518805 ], [ 6.193937269717229, 50.962207419934494 ], [ 6.194408831354977, 50.962415651774513 ], [ 6.194869367898018, 50.962742706599904 ], [ 6.195139543622334, 50.963086560568321 ], [ 6.195383255733159, 50.963715593030656 ], [ 6.195509663439322, 50.964387976704508 ], [ 6.195697969340578, 50.964800337520415 ], [ 6.196116494478953, 50.965173524744309 ], [ 6.196313629970648, 50.965490825083769 ], [ 6.196318186231094, 50.965848692673362 ], [ 6.196092521721189, 50.966245733922811 ], [ 6.194731441753464, 50.967483078187861 ], [ 6.20005901529801, 50.969897878179381 ], [ 6.202032000056978, 50.970614651089129 ], [ 6.202459040675935, 50.970081960387411 ], [ 6.203486280944192, 50.970000675782629 ], [ 6.208856382990001, 50.97196353501738 ], [ 6.208114731466149, 50.9726890585424 ], [ 6.211637246401293, 50.974459591930675 ], [ 6.216745839348089, 50.976727184550292 ], [ 6.225233707760797, 50.981495893291417 ], [ 6.230142829600467, 50.987101741101888 ], [ 6.234351750281187, 50.98574199332208 ], [ 6.23541519068879, 50.98675432976713 ], [ 6.235904926405799, 50.987484269230961 ], [ 6.236712462518042, 50.988640426979202 ], [ 6.241813976985711, 50.986889521773755 ], [ 6.242257820226127, 50.987031937884979 ], [ 6.244077763660184, 50.990078849597886 ], [ 6.245615496900124, 50.991107976388349 ], [ 6.246740507936044, 50.992332984874018 ], [ 6.253547514478669, 50.995970231334191 ], [ 6.255634008048923, 50.997046716305555 ], [ 6.25736719153709, 50.997946622691941 ], [ 6.258940473756184, 50.996115409724148 ], [ 6.260336320016338, 50.994735545995653 ], [ 6.267873489125201, 50.997672194138701 ], [ 6.269128390547543, 50.998260272777387 ], [ 6.27116954794054, 50.997549111902039 ], [ 6.272449870992921, 50.997433421209443 ], [ 6.272328246090703, 50.997901933558381 ], [ 6.272124849557249, 50.999219750192538 ], [ 6.271712275272958, 51.000263479429471 ], [ 6.271158809586904, 51.001359330959481 ], [ 6.270373758778641, 51.002503982619196 ], [ 6.270027354995618, 51.003321205137894 ], [ 6.26983386305241, 51.003830367218619 ], [ 6.271367017118514, 51.004206030669309 ], [ 6.272993769581691, 51.004951374965501 ], [ 6.273009448781873, 51.006502056388086 ], [ 6.274304418175273, 51.007003144544377 ], [ 6.273590323286528, 51.007787952944284 ], [ 6.273735325696867, 51.008270117516759 ], [ 6.27392884145451, 51.008634817674377 ], [ 6.275931937769592, 51.008635977345584 ], [ 6.276394461726842, 51.00729359474893 ], [ 6.279233511379684, 51.007016271859342 ], [ 6.279768028485906, 51.008675875524723 ], [ 6.278462853767915, 51.010458040526302 ], [ 6.279665808870913, 51.010798207960526 ], [ 6.284954337817855, 51.010417513108735 ], [ 6.286479248408754, 51.014430941339633 ], [ 6.284770827529137, 51.014512175305981 ], [ 6.285466600982861, 51.016421098436361 ], [ 6.287607066190341, 51.016728260492172 ], [ 6.285289570722984, 51.023353519070625 ], [ 6.290074247105309, 51.02395578341104 ], [ 6.289937440681558, 51.02488742104385 ], [ 6.295757766498954, 51.024367694579404 ], [ 6.298313778324177, 51.024703263243353 ], [ 6.300278439924582, 51.019267751027421 ], [ 6.299911221107688, 51.015911025967867 ], [ 6.309660554953402, 51.014586043165828 ], [ 6.322295739731512, 51.012778068907636 ], [ 6.336955410784586, 51.013546451133102 ], [ 6.356278252621111, 51.016488617629321 ], [ 6.357059364466076, 51.008979382269729 ], [ 6.358266456343507, 51.007310904244086 ], [ 6.358686220802243, 51.005372766455125 ], [ 6.356736263442801, 51.001302191245522 ], [ 6.357419463698101, 50.998863484267531 ], [ 6.358670434612356, 50.997592483959444 ], [ 6.360220662763826, 50.995930253972716 ], [ 6.361182675411958, 50.992773112116325 ], [ 6.355792858100715, 50.991887418102976 ], [ 6.354330008767844, 50.992916726855384 ], [ 6.340540435742432, 50.987774623836096 ], [ 6.336654893842443, 50.986365008510276 ], [ 6.339560276864145, 50.983422917669458 ], [ 6.346674241239049, 50.975088816509846 ], [ 6.349609744290289, 50.975941552382636 ], [ 6.356629171052533, 50.968951176011053 ], [ 6.359219621693693, 50.967272259466171 ], [ 6.360916996887074, 50.965683527123268 ], [ 6.369568263537539, 50.973822167436694 ], [ 6.374643198800333, 50.980472561609645 ], [ 6.378332369572102, 50.978476569003263 ], [ 6.38468742724482, 50.97574103082804 ], [ 6.383958328106021, 50.975080124020671 ], [ 6.38068516743717, 50.971903709002333 ], [ 6.386794776446835, 50.969331959638161 ], [ 6.389110635519812, 50.969449868165661 ], [ 6.388539170382167, 50.967041621152006 ], [ 6.394260918440081, 50.966730060750351 ], [ 6.39386312779622, 50.964668315108604 ], [ 6.397880243273955, 50.964500096316748 ], [ 6.397737497292436, 50.965687205260409 ], [ 6.400499769236085, 50.965733555197382 ], [ 6.400163358588056, 50.968893723580557 ], [ 6.411222748340387, 50.969391102405545 ], [ 6.414579348312473, 50.969522522598304 ], [ 6.414767692117335, 50.968241639890479 ], [ 6.418245681555129, 50.968078773383311 ], [ 6.41829228650603, 50.969495184247648 ], [ 6.421967802749597, 50.970218832775373 ], [ 6.426488798694878, 50.973341927747434 ], [ 6.427803290456523, 50.972838259305718 ], [ 6.430235335331911, 50.975050009771117 ], [ 6.432681315843353, 50.974519949476928 ], [ 6.431477857997971, 50.97144990918607 ], [ 6.431943205291883, 50.970550064350569 ], [ 6.442604577065908, 50.9638275710263 ], [ 6.444556977909304, 50.958769623882716 ], [ 6.448005237723812, 50.959485858111925 ], [ 6.448896496766925, 50.957061183990007 ], [ 6.450588737144595, 50.949766645341974 ], [ 6.454868645618774, 50.934818559130825 ], [ 6.463519803189201, 50.938002898738965 ], [ 6.46132520003103, 50.941413862499239 ], [ 6.468288083957323, 50.943187393597945 ], [ 6.477214323514508, 50.944128006049745 ], [ 6.479396747981752, 50.945022821296405 ], [ 6.475064493059572, 50.951063454970964 ], [ 6.483090073434179, 50.949646907932639 ], [ 6.482801068888138, 50.9526555724673 ], [ 6.484870516813839, 50.952150344499287 ], [ 6.485807760227625, 50.951589659825608 ], [ 6.487366352948903, 50.951299588268895 ], [ 6.494429598205253, 50.949827076691037 ], [ 6.495686344982678, 50.945235641806264 ], [ 6.496721285069741, 50.941637890214153 ], [ 6.500468295575907, 50.936693696984044 ], [ 6.500923932203461, 50.935556331158999 ], [ 6.502107550675653, 50.932601503270959 ], [ 6.502775408296292, 50.930934066566905 ], [ 6.517722231957551, 50.9318886125372 ], [ 6.52442551203761, 50.931703572167059 ], [ 6.523359090885808, 50.930052820395012 ], [ 6.52004488146083, 50.924921822087001 ], [ 6.519098527239959, 50.920360503717852 ], [ 6.518662926135444, 50.91826065469197 ], [ 6.518990691536779, 50.916100310269705 ], [ 6.51860616737804, 50.91375665038403 ], [ 6.518391552649788, 50.912448477209949 ], [ 6.518394489568816, 50.909754382629401 ], [ 6.519005149930669, 50.908713962640718 ], [ 6.519612802510714, 50.907678616580938 ], [ 6.517963742138355, 50.904306173072769 ], [ 6.518429034104991, 50.903884177728635 ], [ 6.518844486963505, 50.903507375279439 ], [ 6.518819404317456, 50.900641116102769 ], [ 6.518985078789491, 50.900342637205227 ], [ 6.519830444787897, 50.898819560762455 ], [ 6.519404871396207, 50.895804418015466 ], [ 6.524013291478775, 50.893898817392753 ], [ 6.536037603808849, 50.892399566125953 ], [ 6.535877105904, 50.892276950697216 ], [ 6.528418898707105, 50.886596593130434 ], [ 6.521376730601204, 50.881231384625423 ], [ 6.517050362232355, 50.877934433076419 ], [ 6.516758011549577, 50.87771162111023 ], [ 6.513945985320116, 50.875568324693013 ], [ 6.519289680474884, 50.875687508473661 ], [ 6.52145127476668, 50.875735649730096 ], [ 6.521310448220921, 50.874085456728061 ], [ 6.520541405097752, 50.86507183858356 ], [ 6.518426331320578, 50.860674161129879 ], [ 6.514514567910437, 50.860467816229473 ], [ 6.515051903390292, 50.85602594686344 ], [ 6.511687997746574, 50.854748000397493 ], [ 6.509611540703415, 50.853730486693088 ], [ 6.507166318283008, 50.852366845073185 ], [ 6.500192356145478, 50.850865153504991 ], [ 6.498801518232046, 50.850817203496717 ], [ 6.49551635715494, 50.849460377269715 ], [ 6.49230001094851, 50.848628460728733 ], [ 6.484211855343561, 50.846195197937966 ], [ 6.483098236980746, 50.84738713625422 ], [ 6.477693900203307, 50.852636994176699 ], [ 6.474792216871267, 50.852248593035014 ], [ 6.476227533900657, 50.849973531523091 ], [ 6.465107165812575, 50.846639072006745 ], [ 6.460965194181614, 50.845396700750051 ], [ 6.456450631343227, 50.843983137857393 ], [ 6.457146031599502, 50.842481481863459 ], [ 6.452154372176113, 50.841425268220725 ], [ 6.450271677377635, 50.841221791586214 ], [ 6.449616964682967, 50.841712573222452 ], [ 6.44971312984125, 50.842188164984641 ], [ 6.449377599149464, 50.842581766864043 ], [ 6.448856421742533, 50.842945043710131 ], [ 6.448226749624224, 50.843256845783984 ], [ 6.44752198280154, 50.843566020803372 ], [ 6.447073795273221, 50.843955682768552 ], [ 6.446677899117873, 50.844609434319864 ], [ 6.446237980909376, 50.844904013219086 ], [ 6.445741619658559, 50.844982037733665 ], [ 6.444938685805406, 50.845120873039811 ], [ 6.444358939542436, 50.845291346821213 ], [ 6.443758458040612, 50.845699515736051 ], [ 6.443608503089691, 50.846123433996539 ], [ 6.443541931386975, 50.846454897934052 ], [ 6.443277263390113, 50.846898648094999 ], [ 6.438480503356123, 50.847428133302799 ], [ 6.437708252682165, 50.847276015239245 ], [ 6.437598199995639, 50.848535807462703 ], [ 6.437333629847426, 50.849408712670225 ], [ 6.43714363831069, 50.850153909671555 ], [ 6.435272129445982, 50.851634668822669 ], [ 6.433748833384604, 50.852802255074195 ], [ 6.432775147795314, 50.854160559420677 ], [ 6.43258568187945, 50.855465253316069 ], [ 6.433430201585111, 50.857393681142703 ], [ 6.426770114978938, 50.855898523987825 ], [ 6.425429341252129, 50.857115309786195 ], [ 6.423714477547749, 50.857770365982866 ], [ 6.418504323396258, 50.855671180091917 ], [ 6.417710169076204, 50.854507442230862 ], [ 6.41602669935302, 50.853518338812755 ], [ 6.416861196533373, 50.852593996272063 ], [ 6.415261299509262, 50.851083278836917 ], [ 6.413162896479181, 50.850103363838073 ], [ 6.411984168428043, 50.851087082176925 ], [ 6.411143405917825, 50.85165352951612 ], [ 6.390176003469396, 50.840820534924937 ], [ 6.393019009554131, 50.839731691230909 ], [ 6.389139305498682, 50.837413461095956 ], [ 6.389081389833244, 50.83678059587907 ] ] ] } }
]
}
